$$SOE
2460154.500000000, A.D. 2023-Jul-29 00:00:00.0000, 4.517092694139003E+07, 2.430957283995281E+08, -1.033670235682078E+08,
2460161.500000000, A.D. 2023-Aug-05 00:00:00.0000, 3.178650188839110E+07, 2.457748002552741E+08, -1.015809219310198E+08,
2460168.500000000, A.D. 2023-Aug-12 00:00:00.0000, 1.832182587152572E+07, 2.478330285135608E+08, -9.953820398641865E+07,
2460175.500000000, A.D. 2023-Aug-19 00:00:00.0000, 4.810836519198651E+06, 2.492643006269821E+08, -9.724366458135951E+07,
2460182.500000000, A.D. 2023-Aug-26 00:00:00.0000, -8.712307547478927E+06, 2.500642989462431E+08, -9.470283814506415E+07,
2460189.500000000, A.D. 2023-Sep-02 00:00:00.0000, -2.221334912848379E+07, 2.502305236864305E+08, -9.192198174559633E+07,
2460196.500000000, A.D. 2023-Sep-09 00:00:00.0000, -3.565805603257254E+07, 2.497623068856737E+08, -8.890805447373995E+07,
2460203.500000000, A.D. 2023-Sep-16 00:00:00.0000, -4.901234478578115E+07, 2.486608171379511E+08, -8.566869329858893E+07,
2460210.500000000, A.D. 2023-Sep-23 00:00:00.0000, -6.224240315267173E+07, 2.469290553196886E+08, -8.221218557176395E+07,
2460217.500000000, A.D. 2023-Sep-30 00:00:00.0000, -7.531481092500673E+07, 2.445718425324605E+08, -7.854743825332806E+07,
2460224.500000000, A.D. 2023-Oct-07 00:00:00.0000, -8.819666045537701E+07, 2.415957998500161E+08, -7.468394392526565E+07,
2460231.500000000, A.D. 2023-Oct-14 00:00:00.0000, -1.008556750395907E+08, 2.380093167602305E+08, -7.063174420865315E+07,
2460238.500000000, A.D. 2023-Oct-21 00:00:00.0000, -1.132603211311832E+08, 2.338225101928324E+08, -6.640139102718879E+07,
2460245.500000000, A.D. 2023-Oct-28 00:00:00.0000, -1.253799150748628E+08, 2.290471767934489E+08, -6.200390572316530E+07,
2460252.500000000, A.D. 2023-Nov-04 00:00:00.0000, -1.371847249152262E+08, 2.236967381432844E+08, -5.745073630249543E+07,
2460259.500000000, A.D. 2023-Nov-11 00:00:00.0000, -1.486460664853790E+08, 2.177861788547492E+08, -5.275371320825717E+07,
2460266.500000000, A.D. 2023-Nov-18 00:00:00.0000, -1.597363930168876E+08, 2.113319780744829E+08, -4.792500399129177E+07,
2460273.500000000, A.D. 2023-Nov-25 00:00:00.0000, -1.704293777328014E+08, 2.043520350656035E+08, -4.297706722437846E+07,
2460280.500000000, A.D. 2023-Dec-02 00:00:00.0000, -1.806999890020083E+08, 1.968655895384544E+08, -3.792260599251293E+07,
2460287.500000000, A.D. 2023-Dec-09 00:00:00.0000, -1.905245576648169E+08, 1.888931373569569E+08, -3.277452128488342E+07,
2460294.500000000, A.D. 2023-Dec-16 00:00:00.0000, -1.998808360333885E+08, 1.804563423161462E+08, -2.754586562289256E+07,
2460301.500000000, A.D. 2023-Dec-23 00:00:00.0000, -2.087480481246865E+08, 1.715779453768576E+08, -2.224979721427212E+07,
2460308.500000000, A.D. 2023-Dec-30 00:00:00.0000, -2.171069324710211E+08, 1.622816731363114E+08, -1.689953473397285E+07,
2460315.500000000, A.D. 2024-Jan-06 00:00:00.0000, -2.249397793562605E+08, 1.525921439215683E+08, -1.150831304477172E+07,
2460322.500000000, A.D. 2024-Jan-13 00:00:00.0000, -2.322304594177004E+08, 1.425347704214567E+08, -6.089340535452142E+06,
2460329.500000000, A.D. 2024-Jan-20 00:00:00.0000, -2.389644425538412E+08, 1.321356625909559E+08, -6.557581381786838E+05,
2460336.500000000, A.D. 2024-Jan-27 00:00:00.0000, -2.451288094275807E+08, 1.214215320878448E+08, 4.779400030823112E+06,
2460343.500000000, A.D. 2024-Feb-03 00:00:00.0000, -2.507122563136471E+08, 1.104195978796988E+08, 1.020324421054327E+07,
2460350.500000000, A.D. 2024-Feb-10 00:00:00.0000, -2.557050933682908E+08, 9.915749326681614E+07, 1.560306453857490E+07,
2460357.500000000, A.D. 2024-Feb-17 00:00:00.0000, -2.600992365775449E+08, 8.766317481384732E+07, 2.096636448854886E+07,
2460364.500000000, A.D. 2024-Feb-24 00:00:00.0000, -2.638881937726512E+08, 7.596483364354984E+07, 2.628089212858530E+07,
2460371.500000000, A.D. 2024-Mar-02 00:00:00.0000, -2.670670451219140E+08, 6.409080945017317E+07, 3.153466914809855E+07,
2460378.500000000, A.D. 2024-Mar-09 00:00:00.0000, -2.696324184025732E+08, 5.206950750392789E+07, 3.671601760464624E+07,
2460385.500000000, A.D. 2024-Mar-16 00:00:00.0000, -2.715824591035362E+08, 3.992931911445534E+07, 4.181358435162014E+07,
2460392.500000000, A.D. 2024-Mar-23 00:00:00.0000, -2.729167959214082E+08, 2.769854686712544E+07, 4.681636324114352E+07,
2460399.500000000, A.D. 2024-Mar-30 00:00:00.0000, -2.736365043716227E+08, 1.540533475306190E+07, 5.171371532285108E+07,
2460406.500000000, A.D. 2024-Apr-06 00:00:00.0000, -2.737440687576726E+08, 3.077599935227238E+06, 5.649538678988513E+07,
2460413.500000000, A.D. 2024-Apr-13 00:00:00.0000, -2.732433394299098E+08, -9.257032923745506E+06, 6.115152449323188E+07,
2460420.500000000, A.D. 2024-Apr-20 00:00:00.0000, -2.721394867182769E+08, -2.157129203896524E+07, 6.567268941847447E+07,
2460427.500000000, A.D. 2024-Apr-27 00:00:00.0000, -2.704389534592617E+08, -3.383831414304513E+07, 7.004986830867645E+07,
2460434.500000000, A.D. 2024-May-04 00:00:00.0000, -2.681494064229080E+08, -4.603169612381190E+07, 7.427448346702772E+07,
2460441.500000000, A.D. 2024-May-11 00:00:00.0000, -2.652796867674620E+08, -5.812554281831382E+07, 7.833840081334054E+07,
2460448.500000000, A.D. 2024-May-18 00:00:00.0000, -2.618397597724199E+08, -7.009451102731508E+07, 8.223393629353115E+07,
2460455.500000000, A.D. 2024-May-25 00:00:00.0000, -2.578406641316471E+08, -8.191384987032920E+07, 8.595386074589029E+07,
2460462.500000000, A.D. 2024-Jun-01 00:00:00.0000, -2.532944610284608E+08, -9.355943767210928E+07, 8.949140332296658E+07,
2460469.500000000, A.D. 2024-Jun-08 00:00:00.0000, -2.482141830021087E+08, -1.050078155526586E+08, 9.284025355480582E+07,
2460476.500000000, A.D. 2024-Jun-15 00:00:00.0000, -2.426137824346611E+08, -1.162362173366712E+08, 9.599456217105901E+07,
2460483.500000000, A.D. 2024-Jun-22 00:00:00.0000, -2.365080808638205E+08, -1.272225947776578E+08, 9.894894097711381E+07,
2460490.500000000, A.D. 2024-Jun-29 00:00:00.0000, -2.299127214175933E+08, -1.379456400978311E+08, 1.016984619344287E+08,
2460497.500000000, A.D. 2024-Jul-06 00:00:00.0000, -2.228441218801320E+08, -1.483848085030946E+08, 1.042386551056758E+08,
2460504.500000000, A.D. 2024-Jul-13 00:00:00.0000, -2.153194265717418E+08, -1.585203380352979E+08, 1.065655056199487E+08,
2460511.500000000, A.D. 2024-Jul-20 00:00:00.0000, -2.073564591327362E+08, -1.683332657933389E+08, 1.086754500278322E+08,
2460518.500000000, A.D. 2024-Jul-27 00:00:00.0000, -1.989736769450771E+08, -1.778054416634709E+08, 1.105653721117983E+08,
2460525.500000000, A.D. 2024-Aug-03 00:00:00.0000, -1.901901269780390E+08, -1.869195401194964E+08, 1.122325981767733E+08,
2460532.500000000, A.D. 2024-Aug-10 00:00:00.0000, -1.810254029376550E+08, -1.956590702812532E+08, 1.136748918865197E+08,
2460539.500000000, A.D. 2024-Aug-17 00:00:00.0000, -1.714996037031625E+08, -2.040083843846343E+08, 1.148904487208421E+08,
2460546.500000000, A.D. 2024-Aug-24 00:00:00.0000, -1.616332930368752E+08, -2.119526848515893E+08, 1.158778901198179E+08,
2460553.500000000, A.D. 2024-Aug-31 00:00:00.0000, -1.514474604522377E+08, -2.194780301801059E+08, 1.166362573634625E+08,
2460560.500000000, A.D. 2024-Sep-07 00:00:00.0000, -1.409634828639740E+08, -2.265713396770296E+08, 1.171650052206547E+08,
2460567.500000000, A.D. 2024-Sep-14 00:00:00.0000, -1.302030869138555E+08, -2.332203961756059E+08, 1.174639954877411E+08,
2460574.500000000, A.D. 2024-Sep-21 00:00:00.0000, -1.191883139655780E+08, -2.394138464521952E+08, 1.175334906703669E+08,
2460581.500000000, A.D. 2024-Sep-28 00:00:00.0000, -1.079414882038201E+08, -2.451412026931611E+08, 1.173741476149907E+08,
2460588.500000000, A.D. 2024-Oct-05 00:00:00.0000, -9.648518410379390E+07, -2.503928451354484E+08, 1.169870107830500E+08,
2460595.500000000, A.D. 2024-Oct-12 00:00:00.0000, -8.484219356497079E+07, -2.551600230208441E+08, 1.163735054808963E+08,
2460602.500000000, A.D. 2024-Oct-19 00:00:00.0000, -7.303549439378801E+07, -2.594348542418992E+08, 1.155354312206896E+08,
2460609.500000000, A.D. 2024-Oct-26 00:00:00.0000, -6.108822010199765E+07, -2.632103245733427E+08, 1.144749551791411E+08,
2460616.500000000, A.D. 2024-Nov-02 00:00:00.0000, -4.902363069368964E+07, -2.664802867167049E+08, 1.131946057363209E+08,
2460623.500000000, A.D. 2024-Nov-09 00:00:00.0000, -3.686508426696951E+07, -2.692394592075937E+08, 1.116972660961924E+08,
2460630.500000000, A.D. 2024-Nov-16 00:00:00.0000, -2.463600932044975E+07, -2.714834252491007E+08, 1.099861679918056E+08,
2460637.500000000, A.D. 2024-Nov-23 00:00:00.0000, -1.235987763124640E+07, -2.732086315780132E+08, 1.080648854704852E+08,
2460644.500000000, A.D. 2024-Nov-30 00:00:00.0000, -6.017740905080501E+04, -2.744123874548001E+08, 1.059373287369231E+08,
2460651.500000000, A.D. 2024-Dec-07 00:00:00.0000, 1.223961378139449E+07, -2.750928633965037E+08, 1.036077380464558E+08,
2460658.500000000, A.D. 2024-Dec-14 00:00:00.0000, 2.451605572975433E+07, -2.752490884595481E+08, 1.010806778040033E+08,
2460665.500000000, A.D. 2024-Dec-21 00:00:00.0000, 3.674576969278055E+07, -2.748809473338616E+08, 9.836103096728367E+07,
2460672.500000000, A.D. 2024-Dec-28 00:00:00.0000, 4.890546197509318E+07, -2.739891802277692E+08, 9.545399331515628E+07,
2460679.500000000, A.D. 2025-Jan-04 00:00:00.0000, 6.097194966810098E+07, -2.725753831754092E+08, 9.236506752190724E+07,
2460686.500000000, A.D. 2025-Jan-11 00:00:00.0000, 7.292218681561688E+07, -2.706420071078737E+08, 8.910005732324642E+07,
2460693.500000000, A.D. 2025-Jan-18 00:00:00.0000, 8.473329017712654E+07, -2.681923565981678E+08, 8.566506176185304E+07,
2460700.500000000, A.D. 2025-Jan-25 00:00:00.0000, 9.638256491889134E+07, -2.652305887372757E+08, 8.206646942683712E+07,
2460707.500000000, A.D. 2025-Feb-01 00:00:00.0000, 1.078475305067449E+08, -2.617617121463979E+08, 7.831095263986924E+07,
2460714.500000000, A.D. 2025-Feb-08 00:00:00.0000, 1.191059469399681E+08, -2.577915860717776E+08, 7.440546155301146E+07,
2460721.500000000, A.D. 2025-Feb-15 00:00:00.0000, 1.301358414337599E+08, -2.533269195377319E+08, 7.035721811860116E+07,
$$EOE